ION SCV-017             
1 63230U 25052W   26068.71648816  .00006457  00000+0  24539-3 0  9998
2 63230  97.4016 324.7516 0023746  44.9875 315.3282 15.26881798 54851
STARLINK-35207          
1 65500U 25198J   26068.85569785  .00029328  00000+0  99927-3 0  9998
2 65500  53.1567 270.3556 0000958 100.6259 259.4849 15.30172373 28641
